ONEWEB-0020             
1 45133U 20008C   25087.11839774 -.00000447  00000+0 -13179-2 0  9997
2 45133  87.8819 125.1884 0001807 101.3804 258.7527 13.10369409249929
ONEWEB-0021             
1 45134U 20008D   25087.36240623 -.00000736  00000+0 -21451-2 0  9997
2 45134  87.8825 125.1685 0002117  93.8708 266.2661 13.10373720250262
ONEWEB-0023             
1 45136U 20008F   25087.83133450 -.00000492  00000+0 -14459-2 0  9999
2 45136  87.8828 125.0613 0002063 103.8493 256.2864 13.10374165250516
ONEWEB-0024             
1 45137U 20008G   25087.80396331 -.00000174  00000+0 -53581-3 0  9993
2 45137  87.8812 125.0257 0001999  94.3380 265.7976 13.10369158250661
ONEWEB-0025             
1 45138U 20008H   25087.82155780 -.00000602  00000+0 -17601-2 0  9995
2 45138  87.8812 125.0229 0002533  99.5325 260.6089 13.10454591250993
ONEWEB-0026             
1 45139U 20008J   25087.43284069  .00000562  00000+0  15505-2 0  9990
2 45139  87.8806 109.9252 0001822  91.2998 268.8339 13.11419985252684
ONEWEB-0028             
1 45140U 20008K   25087.08517857 -.00000482  00000+0 -13962-2 0  9995
2 45140  87.8799 110.0232 0002412  96.3192 263.8210 13.11415846250151
ONEWEB-0032             
1 45141U 20008L   25087.83716196 -.00000005  00000+0 -51433-4 0  9994
2 45141  87.8819 125.0706 0002211  97.6500 262.4879 13.10376683250836
